OBJECT_NAME,OBJECT_ID,EPOCH,MEAN_MOTION,ECCENTRICITY,INCLINATION,RA_OF_ASC_NODE,ARG_OF_PERICENTER,MEAN_ANOMALY,EPHEMERIS_TYPE,CLASSIFICATION_TYPE,NORAD_CAT_ID,ELEMENT_SET_NO,REV_AT_EPOCH,BSTAR,MEAN_MOTION_DOT,MEAN_MOTION_DDOT
SL-8 R/B,1985-006B,2026-07-19T12:02:32.453664,14.37846676,.00192413,74.0456,18.5951,261.0233,128.0158,0,U,15483,999,17297,.45075755E-4,.11E-5,0
SL-12 R/B(2),1985-042D,2026-07-19T09:36:14.939424,14.22011476,.00373722,71.1069,169.4573,280.0436,244.7404,0,U,15772,999,13311,.46292478E-4,.55E-6,0
SL-14 R/B,1985-069B,2026-07-19T05:02:27.290112,14.86536645,.0020228,82.5257,261.2503,114.8787,245.4536,0,U,15945,999,19237,.17902363E-4,.184E-5,0
SL-16 R/B,1985-097B,2026-07-19T09:40:45.328224,14.16614816,.00058202,71.0005,223.2530,43.0821,54.9486,0,U,16182,999,10588,.13853916E-3,.229E-5,0
SL-14 R/B,1986-006B,2026-07-19T06:50:23.623296,14.86969974,.00758163,82.5284,135.9095,195.1894,164.7048,0,U,16496,999,16876,.22632556E-4,.24E-5,0
COSMOS 1743,1986-034A,2026-07-19T07:13:58.722240,15.69928828,.0005555,82.5270,294.5126,164.0068,196.1371,0,U,16719,999,20082,.28497669E-3,.34234E-3,0
SL-14 R/B,1986-046B,2026-07-19T09:56:07.277568,14.85692363,.00239045,82.4840,315.7249,149.4218,210.8398,0,U,16792,999,14596,.24378151E-4,.237E-5,0
SL-14 R/B,1986-055B,2026-07-19T11:10:16.880160,14.85741878,.00173602,82.5207,2.7809,254.9060,129.0224,0,U,16882,999,13893,.22524499E-4,.22E-5,0
AJISAI (EGS),1986-061A,2026-07-19T15:42:48.564864,12.44516666,.00110824,50.0108,47.5584,263.2460,143.6827,0,U,16908,999,48443,-.27884288E-4,-.101E-5,0
SL-14 R/B,1987-024B,2026-07-19T09:35:15.857376,14.86233463,.00182064,82.5302,328.9728,179.6746,180.4486,0,U,17567,999,10769,.2311045E-4,.228E-5,0
COSMOS 1833,1987-027A,2026-07-19T07:37:00.762816,14.13067482,.00245471,70.9213,49.3359,2.1091,358.0129,0,U,17589,999,2891,.31410232E-4,.11E-6,0
SL-16 R/B,1987-027B,2026-07-19T11:21:12.032352,14.17175149,.00071976,71.0037,358.7907,277.3818,82.6487,0,U,17590,999,3401,.12081376E-3,.196E-5,0
SL-14 R/B,1987-038B,2026-07-19T09:28:42.029760,14.85463004,.00208779,82.5016,172.7344,89.4017,270.9592,0,U,17912,999,9878,.23127289E-4,.225E-5,0
COSMOS 1844,1987-041A,2026-07-19T05:03:59.991264,14.14581291,.00310556,70.9000,116.7596,189.5290,170.5247,0,U,17973,999,2218,.13099289E-4,-.23E-6,0
SL-14 R/B,1987-055B,2026-07-19T11:35:51.192096,14.85728397,.00191874,82.4969,224.7822,299.9193,60.0117,0,U,18153,999,8950,.17092266E-4,.173E-5,0
COSMOS 1867,1987-060A,2026-07-19T11:29:28.383936,14.31518752,.00172592,65.0117,297.6238,281.9416,77.9733,0,U,18187,999,3880,.17491315E-4,-.54E-6,0
SL-14 R/B,1988-001B,2026-07-19T14:56:03.101568,14.85628228,.00185271,82.5116,71.2565,157.4612,202.7423,0,U,18749,999,6161,.16248081E-4,.166E-5,0
COSMOS 1933,1988-020A,2026-07-19T06:06:01.919232,15.18904501,.00059287,82.5140,120.6780,96.9545,263.2364,0,U,18958,999,7019,.95756769E-4,.203E-4,0
SL-3 R/B,1988-032B,2026-07-19T13:06:30.266496,15.21049977,.0026839,97.5279,183.5625,131.2352,229.1202,0,U,19046,999,7214,.93959829E-4,.2033E-4,0
SL-16 R/B,1988-039B,2026-07-19T06:02:15.202176,14.19631629,.00203931,71.0143,150.3580,142.8139,217.4403,0,U,19120,999,97705,.74383504E-4,.109E-5,0
COSMOS 1953,1988-050A,2026-07-19T12:27:44.752608,15.30371515,.00111212,82.5068,25.4151,25.8455,334.3338,0,U,19210,999,5793,.13977535E-3,.4146E-4,0
SL-8 R/B,1988-053B,2026-07-19T13:28:19.297344,14.38979461,.00198912,74.0453,229.3803,13.5810,148.2224,0,U,19257,999,99556,.37487074E-4,.9E-6,0
COSMOS 1975,1988-093A,2026-07-19T11:20:41.742240,15.29694366,.00123723,82.5208,345.2147,69.1275,291.1289,0,U,19573,999,3954,.13997073E-3,.4068E-4,0
SL-14 R/B,1988-093B,2026-07-19T07:57:24.467616,14.85761453,.00196769,82.5312,278.4690,326.1236,102.3029,0,U,19574,999,2056,.17263017E-4,.175E-5,0
SL-16 R/B,1988-102B,2026-07-19T11:55:42.880512,14.16167120,.00140627,70.9972,234.1552,178.8287,181.2872,0,U,19650,999,94555,.89075857E-4,.129E-5,0
INTERCOSMOS 24,1989-080A,2026-07-19T11:57:50.343840,12.59693011,.11869762,82.6055,18.6124,346.9566,10.3128,0,U,20261,999,68339,.32663447E-4,.122E-5,0
SL-14 R/B,1989-080C,2026-07-19T03:54:32.563296,12.50578938,.12288427,82.5929,88.7623,244.2122,102.7276,0,U,20262,999,67658,.15784417E-4,.56E-6,0
DELTA 1 R/B,1989-089B,2026-07-19T11:57:33.369696,14.50749171,.00705531,97.0637,26.8860,66.6727,294.1874,0,U,20323,999,91484,.35051917E-4,.107E-5,0
ARIANE 40 R/B,1990-005H,2026-07-19T03:33:19.465344,14.39941767,.00105355,98.2941,256.7675,162.5353,197.6200,0,U,20443,999,91172,.39370066E-4,.82E-6,0
DELTA 2 R/B(1),1990-008B,2026-07-19T12:35:47.253408,15.74328223,.00568278,35.5999,18.4422,57.3610,303.2598,0,U,20453,999,94679,.49412934E-3,.82862E-3,0
