SL-8 R/B                
1 15483U 85006B   26200.50176451  .00000110  00000+0  45076-4 0  9996
2 15483  74.0456  18.5951 0019241 261.0233 128.0158 14.37846676172975
SL-12 R/B(2)            
1 15772U 85042D   26200.40017291  .00000055  00000+0  46292-4 0  9991
2 15772  71.1069 169.4573 0037372 280.0436 244.7404 14.22011476133110
SL-14 R/B               
1 15945U 85069B   26200.21003808  .00000184  00000+0  17902-4 0  9999
2 15945  82.5257 261.2503 0020228 114.8787 245.4536 14.86536645192373
SL-16 R/B               
1 16182U 85097B   26200.40330241  .00000229  00000+0  13854-3 0  9990
2 16182  71.0005 223.2530 0005820  43.0821  54.9486 14.16614816105889
SL-14 R/B               
1 16496U 86006B   26200.28499564  .00000240  00000+0  22633-4 0  9998
2 16496  82.5284 135.9095 0075816 195.1894 164.7048 14.86969974168764
COSMOS 1743             
1 16719U 86034A   26200.30137410  .00034234  00000+0  28498-3 0  9993
2 16719  82.5270 294.5126 0005555 164.0068 196.1371 15.69928828200822
SL-14 R/B               
1 16792U 86046B   26200.41397312  .00000237  00000+0  24378-4 0  9998
2 16792  82.4840 315.7249 0023904 149.4218 210.8398 14.85692363145964
SL-14 R/B               
1 16882U 86055B   26200.46547315  .00000220  00000+0  22524-4 0  9996
2 16882  82.5207   2.7809 0017360 254.9060 129.0224 14.85741878138937
AJISAI (EGS)            
1 16908U 86061A   26200.65472876 -.00000101  00000+0 -27884-4 0  9996
2 16908  50.0108  47.5584 0011082 263.2460 143.6827 12.44516666484433
SL-14 R/B               
1 17567U 87024B   26200.39948909  .00000228  00000+0  23110-4 0  9990
2 17567  82.5302 328.9728 0018206 179.6746 180.4486 14.86233463107698
COSMOS 1833             
1 17589U 87027A   26200.31736994  .00000011  00000+0  31410-4 0  9990
2 17589  70.9213  49.3359 0024547   2.1091 358.0129 14.13067482 28916
SL-16 R/B               
1 17590U 87027B   26200.47305593  .00000196  00000+0  12081-3 0  9992
2 17590  71.0037 358.7907 0007197 277.3818  82.6487 14.17175149 34014
SL-14 R/B               
1 17912U 87038B   26200.39493090  .00000225  00000+0  23127-4 0  9990
2 17912  82.5016 172.7344 0020877  89.4017 270.9592 14.85463004 98786
COSMOS 1844             
1 17973U 87041A   26200.21111101 -.00000023  00000+0  13099-4 0  9996
2 17973  70.9000 116.7596 0031055 189.5290 170.5247 14.14581291 22183
SL-14 R/B               
1 18153U 87055B   26200.48323139  .00000173  00000+0  17092-4 0  9999
2 18153  82.4969 224.7822 0019187 299.9193  60.0117 14.85728397 89504
COSMOS 1867             
1 18187U 87060A   26200.47880074 -.00000054  00000+0  17491-4 0  9999
2 18187  65.0117 297.6238 0017259 281.9416  77.9733 14.31518752 38801
SL-14 R/B               
1 18749U 88001B   26200.62225812  .00000166  00000+0  16248-4 0  9991
2 18749  82.5116  71.2565 0018527 157.4612 202.7423 14.85628228 61619
COSMOS 1933             
1 18958U 88020A   26200.25418888  .00002030  00000+0  95757-4 0  9994
2 18958  82.5140 120.6780 0005928  96.9545 263.2364 15.18904501 70196
SL-3 R/B                
1 19046U 88032B   26200.54618364  .00002033  00000+0  93960-4 0  9996
2 19046  97.5279 183.5625 0026839 131.2352 229.1202 15.21049977 72143
SL-16 R/B               
1 19120U 88039B   26200.25156484  .00000109  00000+0  74384-4 0  9995
2 19120  71.0143 150.3580 0020393 142.8139 217.4403 14.19631629977059
COSMOS 1953             
1 19210U 88050A   26200.51926797  .00004146  00000+0  13978-3 0  9995
2 19210  82.5068  25.4151 0011121  25.8455 334.3338 15.30371515 57939
SL-8 R/B                
1 19257U 88053B   26200.56133446  .00000090  00000+0  37487-4 0  9991
2 19257  74.0453 229.3803 0019891  13.5810 148.2224 14.38979461995561
COSMOS 1975             
1 19573U 88093A   26200.47270535  .00004068  00000+0  13997-3 0  9995
2 19573  82.5208 345.2147 0012372  69.1275 291.1289 15.29694366 39547
SL-14 R/B               
1 19574U 88093B   26200.33153319  .00000175  00000+0  17263-4 0  9997
2 19574  82.5312 278.4690 0019676 326.1236 102.3029 14.85761453 20561
SL-16 R/B               
1 19650U 88102B   26200.49702408  .00000129  00000+0  89076-4 0  9999
2 19650  70.9972 234.1552 0014062 178.8287 181.2872 14.16167120945559
INTERCOSMOS 24          
1 20261U 89080A   26200.49849935  .00000122  00000+0  32663-4 0  9995
2 20261  82.6055  18.6124 1186976 346.9566  10.3128 12.59693011683399
SL-14 R/B               
1 20262U 89080C   26200.16287689  .00000056  00000+0  15784-4 0  9993
2 20262  82.5929  88.7623 1228842 244.2122 102.7276 12.50578938676582
DELTA 1 R/B             
1 20323U 89089B   26200.49830289  .00000107  00000+0  35052-4 0  9993
2 20323  97.0637  26.8860 0070553  66.6727 294.1874 14.50749171914848
ARIANE 40 R/B           
1 20443U 90005H   26200.14814196  .00000082  00000+0  39370-4 0  9996
2 20443  98.2941 256.7675 0010535 162.5353 197.6200 14.39941767911721
DELTA 2 R/B(1)          
1 20453U 90008B   26200.52485247  .00082862  00000+0  49413-3 0  9997
2 20453  35.5999  18.4422 0056827  57.3610 303.2598 15.74328223946799
